IRIDIUM 171             
1 43929U 19002H   24104.14905940  .00000304  00000+0  10138-3 0  9994
2 43929  86.3975 326.0724 0002050  84.7876 275.3553 14.34216908275000
IRIDIUM 170             
1 43930U 19002J   24104.35081229  .00001209  00000+0  18787-3 0  9997
2 43930  86.6087 325.8190 0002343  93.8576 266.2909 14.72260632282317
IRIDIUM 167             
1 43931U 19002K   24104.14271747  .00000232  00000+0  75767-4 0  9998
2 43931  86.3963 325.8724 0002098  85.2895 274.8540 14.34218385275007
IRIDIUM 181             
1 56726U 23068S   24103.88037082  .00000507  00000+0  14408-3 0  9992
2 56726  86.8692  16.5090 0002244  79.2965 280.8489 14.43566427 47718
IRIDIUM 177             
1 56727U 23068T   24103.65154240  .00001502  00000+0  19412-3 0  9990
2 56727  86.2007 346.4860 0002239  84.6951 275.4525 14.80240509 48681
IRIDIUM 174             
1 56728U 23068U   24103.64614474  .00000941  00000+0  12033-3 0  9998
2 56728  86.2010 346.5868 0002564  88.1848 271.9666 14.80239760 48684
IRIDIUM 178             
1 56729U 23068V   24104.24923268  .00001810  00000+0  23479-3 0  9992
2 56729  86.5838   0.6768 0003253  84.3854 275.7738 14.80224597 48778
IRIDIUM 179             
1 56730U 23068W   24104.24380435  .00001847  00000+0  23964-3 0  9996
2 56730  86.6850   3.9915 0004197  65.6926 294.4733 14.80238372 48774
